     3.04           N: GNSS NAV DATA    M (MIXED)           RINEX VERSION / TYPE
G-Nut/Aset_1.5.11   GOP/RIGTC           20210102 234548 UTC PGM / RUN BY / DATE 
Multi-GNSS (GPS/GLO/GAL/BDS/QZS/SBS/IRN) navigation data    COMMENT             
merged from all available IGS-MGEX (and other) files        COMMENT             
Contact: gnss@pecny.cz                                      COMMENT             
GAL    6.6250e+01 -1.6406e-01 -2.4719e-03  0.0000e+00       IONOSPHERIC CORR    
GPSA   7.4506e-09 -1.4901e-08 -5.9605e-08  1.1921e-07       IONOSPHERIC CORR    
GPSB   9.0112e+04 -6.5536e+04 -1.3107e+05  4.5875e+05       IONOSPHERIC CORR    
QZSA   8.3819e-09 -2.9802e-08 -2.3842e-07 -1.1921e-07       IONOSPHERIC CORR    
QZSB   6.9632e+04 -1.6384e+05  5.8982e+05  4.1288e+06       IONOSPHERIC CORR    
BDSA   1.1180e-08  2.9800e-08 -4.1720e-07  6.5570e-07       IONOSPHERIC CORR    
BDSB   1.4130e+05 -5.2430e+05  1.6380e+06 -4.5880e+05       IONOSPHERIC CORR    
IRNA   2.7940e-08  3.4273e-07 -7.5102e-06  7.5102e-06       IONOSPHERIC CORR    
IRNB   1.2698e+05  7.7005e+05 -8.3231e+06  8.3231e+06       IONOSPHERIC CORR    
XXXX  1.7840648070e-08 5.773159728e-14 432288 2138          TIME SYSTEM CORR    
GAUT  1.8626451492e-09-8.881784197e-16 432000 2138          TIME SYSTEM CORR    
GPUT -3.7252902985e-09-1.065814104e-14  61440 2139          TIME SYSTEM CORR    
GLUT -1.8626451492e-09 0.000000000e+00      0    0          TIME SYSTEM CORR    
GAGP  2.1536834538e-09-9.769962617e-15 432000 2138          TIME SYSTEM CORR    
GLGP -2.1420419216e-08 0.000000000e+00 518400 2138          TIME SYSTEM CORR    
QZUT  5.5879354477e-09 0.000000000e+00  94208 2139          TIME SYSTEM CORR    
BDUT  0.0000000000e+00-4.085620730e-14     14  782          TIME SYSTEM CORR    
IRUT -9.6333678812e-09 1.776356839e-15 345888 1114          TIME SYSTEM CORR    
IRGP -4.9476511776e-10-2.664535259e-15 432288 2138          TIME SYSTEM CORR    
    18                                                      LEAP SECONDS        
                                                            END OF HEADER       
C01 2021 01 01 00 00 00-7.190882461146e-04 3.460076669626e-11 0.000000000000e+00
     1.000000000000e+00-2.907656250000e+02 2.900477959406e-09 3.331938691706e-01
    -9.710434824228e-06 7.725369650871e-04 2.213148400187e-05 6.493491893768e+03
     4.320000000000e+05-4.144385457039e-08-3.005143127359e+00 1.443549990654e-08
     9.581238594188e-02-6.750156250000e+02-1.002638139309e+00-1.722928909762e-09
    -7.293160932284e-10 0.000000000000e+00 7.820000000000e+02 0.000000000000e+00
     2.000000000000e+00 0.000000000000e+00-5.400000000000e-09-9.900000000000e-09
     4.320000000000e+05 0.000000000000e+00
E03 2021 01 01 08 20 00-3.824086161330e-04-4.234834705130e-12 0.000000000000e+00
     2.000000000000e+00-2.218750000000e+01 3.279065157654e-09 3.136310542094e+00
    -9.071081876755e-07 3.208330599591e-04 1.001730561256e-05 5.440618658066e+03
     4.620000000000e+05 1.061707735062e-07 1.055383868631e+00-3.725290298462e-09
     9.541566786727e-01 1.222500000000e+02 8.525263713968e-01-5.457370178516e-09
     5.950247851707e-10 2.580000000000e+02 2.138000000000e+03 0.000000000000e+00
     3.120000000000e+00 0.000000000000e+00 3.026798367500e-09 0.000000000000e+00
     4.627000000000e+05
R10 2021 01 01 07 15 00-6.517861038446e-05-0.000000000000e+00 4.572000000000e+05
     9.920972167969e+03 2.035548210144e+00-9.313225746155e-10 0.000000000000e+00
    -5.180605957031e+03 2.386846542358e+00 1.862645149231e-09-7.000000000000e+00
    -2.292628466797e+04 3.485870361328e-01 1.862645149231e-09 0.000000000000e+00
S36 2021 01 01 01 28 00 0.000000000000e+00 0.000000000000e+00 4.372800000000e+05
     4.200368800000e+04 0.000000000000e+00 0.000000000000e+00 0.000000000000e+00
     3.674846960000e+03 0.000000000000e+00 0.000000000000e+00 1.500000000000e+01
     0.000000000000e+00 0.000000000000e+00 0.000000000000e+00 0.000000000000e+00
